{
  "type": "FeatureCollection",
  "features": [
    {
      "type": "Feature",
      "properties": {
        "norad_id": 32105,
        "name": "FENGYUN 1C DEB",
        "group": "fengyun-1c-debris",
        "lat": 2.2357748376763564,
        "lon": 152.9648705073585,
        "alt_km": 1115.8471923168754,
        "timestamp": "2025-12-08T08:59:01.051296+00:00",
        "meta_object_name": "FENGYUN 1C DEB",
        "meta_object_id": "1999-025CQX",
        "meta_epoch": "2025-12-06T04:11:30.067584",
        "meta_mean_motion": 13.40226263,
        "meta_eccentricity": 0.03939271,
        "meta_inclination": 103.4626,
        "meta_ra_of_asc_node": 329.5114,
        "meta_arg_of_pericenter": 88.9087,
        "meta_mean_anomaly": 275.7122,
        "meta_ephemeris_type": 0,
        "meta_classification_type": "U",
        "meta_norad_cat_id": 32105,
        "meta_element_set_no": 999,
        "meta_rev_at_epoch": 59623,
        "meta_bstar": 0.0040140571,
        "meta_mean_motion_dot": 3.389e-05,
        "meta_mean_motion_ddot": 0,
        "tle_line1": "1 32105U 99025CQX 25340.17465356  .00003389  00000+0  40141-2 0  9991",
        "tle_line2": "2 32105 103.4626 329.5114 0393927  88.9087 275.7122 13.40226263596233"
      },
      "geometry": {
        "type": "Point",
        "coordinates": [
          152.9648705073585,
          2.2357748376763564
        ]
      }
    },
    {
      "type": "Feature",
      "properties": {
        "norad_id": 32106,
        "name": "FENGYUN 1C DEB",
        "group": "fengyun-1c-debris",
        "lat": -7.291455356213856,
        "lon": 130.93572239127658,
        "alt_km": 860.1743163136452,
        "timestamp": "2025-12-08T08:59:01.051306+00:00",
        "meta_object_name": "FENGYUN 1C DEB",
        "meta_object_id": "1999-025CQY",
        "meta_epoch": "2025-12-07T15:17:19.253760",
        "meta_mean_motion": 14.2683793,
        "meta_eccentricity": 0.01100208,
        "meta_inclination": 101.4628,
        "meta_ra_of_asc_node": 311.4602,
        "meta_arg_of_pericenter": 55.4734,
        "meta_mean_anomaly": 305.6765,
        "meta_ephemeris_type": 0,
        "meta_classification_type": "U",
        "meta_norad_cat_id": 32106,
        "meta_element_set_no": 999,
        "meta_rev_at_epoch": 69319,
        "meta_bstar": 0.0067717781,
        "meta_mean_motion_dot": 0.00017494,
        "meta_mean_motion_ddot": 0,
        "tle_line1": "1 32106U 99025CQY 25341.63702840  .00017494  00000+0  67718-2 0  9997",
        "tle_line2": "2 32106 101.4628 311.4602 0110020  55.4734 305.6765 14.26837930693198"
      },
      "geometry": {
        "type": "Point",
        "coordinates": [
          130.93572239127658,
          -7.291455356213856
        ]
      }
    },
    {
      "type": "Feature",
      "properties": {
        "norad_id": 32109,
        "name": "FENGYUN 1C DEB",
        "group": "fengyun-1c-debris",
        "lat": -46.318395096208974,
        "lon": 33.22381797561,
        "alt_km": 804.2766668856575,
        "timestamp": "2025-12-08T08:59:01.051316+00:00",
        "meta_object_name": "FENGYUN 1C DEB",
        "meta_object_id": "1999-025CRB",
        "meta_epoch": "2025-12-06T22:25:05.066688",
        "meta_mean_motion": 14.33902731,
        "meta_eccentricity": 0.02061007,
        "meta_inclination": 98.3598,
        "meta_ra_of_asc_node": 220.6879,
        "meta_arg_of_pericenter": 329.6778,
        "meta_mean_anomaly": 29.2612,
        "meta_ephemeris_type": 0,
        "meta_classification_type": "U",
        "meta_norad_cat_id": 32109,
        "meta_element_set_no": 999,
        "meta_rev_at_epoch": 64805,
        "meta_bstar": 0.0010225658,
        "meta_mean_motion_dot": 3.567e-05,
        "meta_mean_motion_ddot": 0,
        "tle_line1": "1 32109U 99025CRB 25340.93408642  .00003567  00000+0  10226-2 0  9993",
        "tle_line2": "2 32109  98.3598 220.6879 0206100 329.6778  29.2612 14.33902731648052"
      },
      "geometry": {
        "type": "Point",
        "coordinates": [
          33.22381797561,
          -46.318395096208974
        ]
      }
    },
    {
      "type": "Feature",
      "properties": {
        "norad_id": 32110,
        "name": "FENGYUN 1C DEB",
        "group": "fengyun-1c-debris",
        "lat": -29.066101372697055,
        "lon": 156.52600487359618,
        "alt_km": 785.7555029590876,
        "timestamp": "2025-12-08T08:59:01.051327+00:00",
        "meta_object_name": "FENGYUN 1C DEB",
        "meta_object_id": "1999-025CRC",
        "meta_epoch": "2025-12-05T23:00:07.012800",
        "meta_mean_motion": 14.28821693,
        "meta_eccentricity": 0.00331812,
        "meta_inclination": 99.5433,
        "meta_ra_of_asc_node": 148.5199,
        "meta_arg_of_pericenter": 26.6073,
        "meta_mean_anomaly": 124.1896,
        "meta_ephemeris_type": 0,
        "meta_classification_type": "U",
        "meta_norad_cat_id": 32110,
        "meta_element_set_no": 999,
        "meta_rev_at_epoch": 64291,
        "meta_bstar": 0.002644109,
        "meta_mean_motion_dot": 6.66e-05,
        "meta_mean_motion_ddot": 0,
        "tle_line1": "1 32110U 99025CRC 25339.95841450  .00006660  00000+0  26441-2 0  9996",
        "tle_line2": "2 32110  99.5433 148.5199 0033181  26.6073 124.1896 14.28821693642916"
      },
      "geometry": {
        "type": "Point",
        "coordinates": [
          156.52600487359618,
          -29.066101372697055
        ]
      }
    },
    {
      "type": "Feature",
      "properties": {
        "norad_id": 32111,
        "name": "FENGYUN 1C DEB",
        "group": "fengyun-1c-debris",
        "lat": -67.44554902905855,
        "lon": 3.179430786680539,
        "alt_km": 768.0442457775525,
        "timestamp": "2025-12-08T08:59:01.051338+00:00",
        "meta_object_name": "FENGYUN 1C DEB",
        "meta_object_id": "1999-025CRD",
        "meta_epoch": "2025-12-05T11:34:27.816096",
        "meta_mean_motion": 14.31532097,
        "meta_eccentricity": 0.01193698,
        "meta_inclination": 98.4434,
        "meta_ra_of_asc_node": 339.4114,
        "meta_arg_of_pericenter": 226.4775,
        "meta_mean_anomaly": 287.5453,
        "meta_ephemeris_type": 0,
        "meta_classification_type": "U",
        "meta_norad_cat_id": 32111,
        "meta_element_set_no": 999,
        "meta_rev_at_epoch": 95927,
        "meta_bstar": 0.00038191668,
        "meta_mean_motion_dot": 1.053e-05,
        "meta_mean_motion_ddot": 0,
        "tle_line1": "1 32111U 99025CRD 25339.48226639  .00001053  00000+0  38192-3 0  9999",
        "tle_line2": "2 32111  98.4434 339.4114 0119369 226.4775 287.5453 14.31532097959270"
      },
      "geometry": {
        "type": "Point",
        "coordinates": [
          3.179430786680539,
          -67.44554902905855
        ]
      }
    },
    {
      "type": "Feature",
      "properties": {
        "norad_id": 32113,
        "name": "FENGYUN 1C DEB",
        "group": "fengyun-1c-debris",
        "lat": 32.570254413725465,
        "lon": 11.41319757219116,
        "alt_km": 1066.4885252606564,
        "timestamp": "2025-12-08T08:59:01.051348+00:00",
        "meta_object_name": "FENGYUN 1C DEB",
        "meta_object_id": "1999-025CRF",
        "meta_epoch": "2025-12-06T20:39:32.228352",
        "meta_mean_motion": 13.94530668,
        "meta_eccentricity": 0.02377827,
        "meta_inclination": 99.0267,
        "meta_ra_of_asc_node": 15.7602,
        "meta_arg_of_pericenter": 242.7405,
        "meta_mean_anomaly": 114.9355,
        "meta_ephemeris_type": 0,
        "meta_classification_type": "U",
        "meta_norad_cat_id": 32113,
        "meta_element_set_no": 999,
        "meta_rev_at_epoch": 62804,
        "meta_bstar": 0.0013373683,
        "meta_mean_motion_dot": 2.214e-05,
        "meta_mean_motion_ddot": 0,
        "tle_line1": "1 32113U 99025CRF 25340.86078968  .00002214  00000+0  13374-2 0  9999",
        "tle_line2": "2 32113  99.0267  15.7602 0237782 242.7405 114.9355 13.94530668628042"
      },
      "geometry": {
        "type": "Point",
        "coordinates": [
          11.41319757219116,
          32.570254413725465
        ]
      }
    },
    {
      "type": "Feature",
      "properties": {
        "norad_id": 32114,
        "name": "FENGYUN 1C DEB",
        "group": "fengyun-1c-debris",
        "lat": -54.52975425055447,
        "lon": 112.65599940600201,
        "alt_km": 628.40849465054,
        "timestamp": "2025-12-08T08:59:01.051358+00:00",
        "meta_object_name": "FENGYUN 1C DEB",
        "meta_object_id": "1999-025CRG",
        "meta_epoch": "2025-12-06T13:19:21.641376",
        "meta_mean_motion": 14.76489439,
        "meta_eccentricity": 0.00447682,
        "meta_inclination": 99.9287,
        "meta_ra_of_asc_node": 96.1919,
        "meta_arg_of_pericenter": 3.5911,
        "meta_mean_anomaly": 356.5605,
        "meta_ephemeris_type": 0,
        "meta_classification_type": "U",
        "meta_norad_cat_id": 32114,
        "meta_element_set_no": 999,
        "meta_rev_at_epoch": 65638,
        "meta_bstar": 0.0040574802,
        "meta_mean_motion_dot": 0.0002877,
        "meta_mean_motion_ddot": 0,
        "tle_line1": "1 32114U 99025CRG 25340.55511159  .00028770  00000+0  40575-2 0  9998",
        "tle_line2": "2 32114  99.9287  96.1919 0044768   3.5911 356.5605 14.76489439656383"
      },
      "geometry": {
        "type": "Point",
        "coordinates": [
          112.65599940600201,
          -54.52975425055447
        ]
      }
    }
  ]
}